[{"OBJECT_NAME":"COSMOS 2576","OBJECT_ID":"2024-092A","EPOCH":"2026-03-09T19:49:29.705664","MEAN_MOTION":15.27760963,"ECCENTRICITY":0.0005946,"INCLINATION":97.4253,"RA_OF_ASC_NODE":186.0053,"ARG_OF_PERICENTER":159.7731,"MEAN_ANOMALY":200.3745,"EPHEMERIS_TYPE":0,"CLASSIFICATION_TYPE":"U","NORAD_CAT_ID":59773,"ELEMENT_SET_NO":999,"REV_AT_EPOCH":10127,"BSTAR":0.00056283,"MEAN_MOTION_DOT":0.00015211,"MEAN_MOTION_DDOT":0},{"OBJECT_NAME":"STARLINK-32681","OBJECT_ID":"2025-003V","EPOCH":"2026-03-09T21:39:56.873376","MEAN_MOTION":15.2761835,"ECCENTRICITY":0.00019782,"INCLINATION":43.0017,"RA_OF_ASC_NODE":269.2136,"ARG_OF_PERICENTER":273.7145,"MEAN_ANOMALY":86.3481,"EPHEMERIS_TYPE":0,"CLASSIFICATION_TYPE":"U","NORAD_CAT_ID":62506,"ELEMENT_SET_NO":999,"REV_AT_EPOCH":6691,"BSTAR":0.001220031,"MEAN_MOTION_DOT":0.00033503,"MEAN_MOTION_DDOT":0}]
